NORAD_CAT_ID,OBJECT_NAME,OBJECT_TYPE,EPOCH,MEAN_MOTION,ECCENTRICITY,INCLINATION,RA_OF_ASC_NODE,ARG_OF_PERICENTER,MEAN_ANOMALY,BSTAR,MEAN_MOTION_DOT,MEAN_MOTION_DDOT,TLE_LINE0,TLE_LINE1,TLE_LINE2,SEMIMAJOR_AXIS,PERIOD,APOGEE,PERIGEE,DECAYED
53527.0,STARLINK-4511,PAYLOAD,2023-11-27 05:03:34,15.0882652,0.000142,53.2156,215.7536,70.2676,289.8469,0.00012419,1.688e-05,0.0,0 STARLINK-4511,1 53527U 22101A   23331.21081028  .00001688  00000-0  12419-3 0  9995,2 53527  53.2156 215.7536 0001420  70.2676 289.8469 15.08826520 70336,6917.922,95.438,540.769,538.804,0.0
53527.0,STARLINK-4511,PAYLOAD,2023-11-27 16:11:16,15.08828428,0.0001389,53.2153,213.6712,72.5369,287.5775,0.00068802,0.00010675,0.0,0 STARLINK-4511,1 53527U 22101A   23331.67449609  .00010675  00000-0  68802-3 0  9991,2 53527  53.2153 213.6712 0001389  72.5369 287.5775 15.08828428 70406,6917.916,95.438,540.742,538.82,0.0
53527.0,STARLINK-4511,PAYLOAD,2023-11-27 22:32:48,15.08848162,0.0001402,53.2152,212.4823,70.3599,289.7544,0.0012143,0.00019095,0.0,0 STARLINK-4511,1 53527U 22101A   23331.93945388  .00019095  00000-0  12143-2 0  9996,2 53527  53.2152 212.4823 0001402  70.3599 289.7544 15.08848162 70441,6917.855,95.437,540.69,538.751,0.0
53527.0,STARLINK-4511,PAYLOAD,2023-11-28 19:12:49,15.08856563,0.0001378,53.2151,208.6173,70.2266,289.8875,0.00086135,0.00013453,0.0,0 STARLINK-4511,1 53527U 22101A   23332.80057248  .00013453  00000-0  86135-3 0  9997,2 53527  53.2151 208.6173 0001378  70.2266 289.8875 15.08856563 70573,6917.83,95.437,540.648,538.741,0.0
53527.0,STARLINK-4511,PAYLOAD,2023-11-28 22:23:35,15.08860413,0.0001339,53.2151,208.0227,76.3751,283.739,0.00095752,0.00014992,0.0,0 STARLINK-4511,1 53527U 22101A   23332.93305083  .00014992  00000-0  95752-3 0  9998,2 53527  53.2151 208.0227 0001339  76.3751 283.7390 15.08860413 70596,6917.818,95.436,540.609,538.757,0.0
53527.0,STARLINK-4511,PAYLOAD,2023-11-29 11:06:40,15.08849631,0.0001391,53.2159,205.6368,130.2744,229.837,0.00035064,5.298e-05,0.0,0 STARLINK-4511,1 53527U 22101A   23333.46296749  .00005298  00000-0  35064-3 0  9994,2 53527  53.2159 205.6368 0001391 130.2744 229.8370 15.08849631 70670,6917.851,95.437,540.678,538.754,0.0
53527.0,STARLINK-4511,PAYLOAD,2023-11-29 19:03:36,15.08843998,0.0001535,53.2153,204.1565,46.8253,313.2867,0.00062575,9.686e-05,0.0,0 STARLINK-4511,1 53527U 22101A   23333.79417182  .00009686  00000-0  62575-3 0  9998,2 53527  53.2153 204.1565 0001535  46.8253 313.2867 15.08843998 70729,6917.868,95.437,540.795,538.671,0.0
53527.0,STARLINK-4511,PAYLOAD,2023-11-30 18:54:23,15.08841699,0.0001477,53.2161,199.6879,105.9275,254.188,0.00016083,2.273e-05,0.0,0 STARLINK-4511,1 53527U 22101A   23334.78777093  .00002273  00000-0  16083-3 0  9996,2 53527  53.2161 199.6879 0001477 105.9275 254.1880 15.08841699 70870,6917.875,95.437,540.762,538.718,0.0
53527.0,STARLINK-4511,PAYLOAD,2023-12-01 20:20:33,15.08847532,0.0001658,53.2159,194.9347,107.3049,252.8124,0.00029242,4.37e-05,0.0,0 STARLINK-4511,1 53527U 22101A   23335.84760915  .00004370  00000-0  29242-3 0  9990,2 53527  53.2159 194.9347 0001658 107.3049 252.8124 15.08847532 71038,6917.857,95.437,540.869,538.575,0.0
53527.0,STARLINK-4511,PAYLOAD,2023-12-02 01:06:42,15.0886218,0.0001687,53.2169,194.041,106.538,253.5798,0.00066188,0.00010268,0.0,0 STARLINK-4511,1 53527U 22101A   23336.04632509  .00010268  00000-0  66188-3 0  9993,2 53527  53.2169 194.0410 0001687 106.5380 253.5798 15.08862180 71066,6917.813,95.436,540.845,538.511,0.0
53527.0,STARLINK-4511,PAYLOAD,2023-12-02 20:11:20,15.08837508,0.0001532,53.216,190.4741,109.3437,250.7721,-1.9542e-05,-5.99e-06,0.0,0 STARLINK-4511,1 53527U 22101A   23336.84121078 -.00000599  00000-0 -19542-4 0  9996,2 53527  53.2160 190.4741 0001532 109.3437 250.7721 15.08837508 71181,6917.888,95.438,540.813,538.693,0.0
53527.0,STARLINK-4511,PAYLOAD,2023-12-02 21:46:43,15.08833037,0.0001369,53.2158,190.1778,80.5549,279.5598,-0.0001011,-1.896e-05,0.0,0 STARLINK-4511,1 53527U 22101A   23336.90745311 -.00001896  00000-0 -10110-3 0  9997,2 53527  53.2158 190.1778 0001369  80.5549 279.5598 15.08833037 71192,6917.902,95.438,540.714,538.82,0.0
53527.0,STARLINK-4511,PAYLOAD,2023-12-03 00:57:30,15.08833135,0.0001326,53.2158,189.5835,83.9683,276.146,-8.0295e-05,-1.565e-05,0.0,0 STARLINK-4511,1 53527U 22101A   23337.03993294 -.00001565  00000-0 -80295-4 0  9992,2 53527  53.2158 189.5835 0001326  83.9683 276.1460 15.08833135 71210,6917.901,95.438,540.684,538.849,0.0
53527.0,STARLINK-4511,PAYLOAD,2023-12-03 20:02:08,15.0883178,0.0001371,53.2156,186.0147,85.3078,274.8071,-4.4382e-05,-9.94e-06,0.0,0 STARLINK-4511,1 53527U 22101A   23337.83482014 -.00000994  00000-0 -44382-4 0  9995,2 53527  53.2156 186.0147 0001371  85.3078 274.8071 15.08831780 71330,6917.906,95.438,540.719,538.822,0.0
53527.0,STARLINK-4511,PAYLOAD,2023-12-04 13:31:23,15.08833032,0.0001407,53.2157,182.7436,74.4981,285.6167,0.00017045,2.425e-05,0.0,0 STARLINK-4511,1 53527U 22101A   23338.56346559  .00002425  00000-0  17045-3 0  9993,2 53527  53.2157 182.7436 0001407  74.4981 285.6167 15.08833032 71447,6917.902,95.438,540.74,538.793,0.0
53527.0,STARLINK-4511,PAYLOAD,2023-12-04 16:42:09,15.08837464,0.0001378,53.2157,182.1497,77.7208,282.3938,0.00022542,3.301e-05,0.0,0 STARLINK-4511,1 53527U 22101A   23338.69594386  .00003301  00000-0  22542-3 0  9992,2 53527  53.2157 182.1497 0001378  77.7208 282.3938 15.08837464 71468,6917.888,95.438,540.706,538.8,0.0
53527.0,STARLINK-4511,PAYLOAD,2023-12-05 13:22:10,15.08846519,0.0001407,53.2156,178.2848,72.115,287.9995,0.00030441,4.561e-05,0.0,0 STARLINK-4511,1 53527U 22101A   23339.55706063  .00004561  00000-0  30441-3 0  9991,2 53527  53.2156 178.2848 0001407  72.1150 287.9995 15.08846519 71590,6917.86,95.437,540.699,538.752,0.0
53527.0,STARLINK-4511,PAYLOAD,2023-12-06 13:12:56,15.0884753,0.0001335,53.2158,173.8228,82.5784,277.536,0.0001634,2.314e-05,0.0,0 STARLINK-4511,1 53527U 22101A   23340.55065610  .00002314  00000-0  16340-3 0  9995,2 53527  53.2158 173.8228 0001335  82.5784 277.5360 15.08847530 71745,6917.857,95.437,540.646,538.799,0.0
53527.0,STARLINK-4511,PAYLOAD,2023-12-07 13:03:43,15.08841342,0.0001407,53.2155,169.3628,77.0421,283.0728,4.6706e-06,-2.14e-06,0.0,0 STARLINK-4511,1 53527U 22101A   23341.54425671 -.00000214  00000-0  46706-5 0  9991,2 53527  53.2155 169.3628 0001407  77.0421 283.0728 15.08841342 71894,6917.876,95.437,540.715,538.768,0.0
53527.0,STARLINK-4511,PAYLOAD,2023-12-09 11:09:54,15.08838838,0.0001442,53.2154,160.7399,74.2056,285.9095,1.6227e-05,-3e-07,0.0,0 STARLINK-4511,1 53527U 22101A   23343.46521779 -.00000030  00000-0  16227-4 0  9990,2 53527  53.2154 160.7399 0001442  74.2056 285.9095 15.08838838 72182,6917.884,95.438,540.746,538.751,0.0
53527.0,STARLINK-4511,PAYLOAD,2023-12-09 14:20:41,15.08840265,0.0001367,53.2165,160.145,77.3823,282.7322,1.8849e-05,1.2e-07,0.0,0 STARLINK-4511,1 53527U 22101A   23343.59769865  .00000012  00000-0  18849-4 0  9995,2 53527  53.2165 160.1450 0001367  77.3823 282.7322 15.08840265 72206,6917.88,95.438,540.69,538.799,0.0
53527.0,STARLINK-4511,PAYLOAD,2023-12-10 11:00:41,15.08840409,0.0001383,53.2168,156.2795,73.0499,287.0645,1.4255e-05,-6.1e-07,0.0,0 STARLINK-4511,1 53527U 22101A   23344.45881896 -.00000061  00000-0  14255-4 0  9992,2 53527  53.2168 156.2795 0001383  73.0499 287.0645 15.08840409 72337,6917.879,95.438,540.701,538.787,0.0
53527.0,STARLINK-4511,PAYLOAD,2023-12-10 18:57:37,15.08837958,0.0001392,53.2169,154.7924,78.1018,282.013,7.548e-05,9.13e-06,0.0,0 STARLINK-4511,1 53527U 22101A   23344.79002142  .00000913  00000-0  75480-4 0  9990,2 53527  53.2169 154.7924 0001392  78.1018 282.0130 15.08837958 72382,6917.887,95.438,540.715,538.789,0.0
53527.0,STARLINK-4511,PAYLOAD,2023-12-11 18:48:24,15.08841673,0.0001427,53.2171,150.332,77.5045,282.6107,8.4939e-05,1.064e-05,0.0,0 STARLINK-4511,1 53527U 22101A   23345.78361991  .00001064  00000-0  84939-4 0  9997,2 53527  53.2171 150.3320 0001427  77.5045 282.6107 15.08841673 72535,6917.875,95.437,540.727,538.753,0.0
53527.0,STARLINK-4511,PAYLOAD,2023-12-12 17:03:48,15.08840912,0.0001492,53.2175,146.169,76.6593,283.4565,5.5936e-05,6.02e-06,0.0,0 STARLINK-4511,1 53527U 22101A   23346.71098173  .00000602  00000-0  55936-4 0  9992,2 53527  53.2175 146.1690 0001492  76.6593 283.4565 15.08840912 72679,6917.878,95.437,540.775,538.71,0.0
53527.0,STARLINK-4511,PAYLOAD,2023-12-13 16:54:35,15.08844805,0.0001429,53.217,141.7154,80.8121,279.3033,8.0779e-05,9.98e-06,0.0,0 STARLINK-4511,1 53527U 22101A   23347.70457737  .00000998  00000-0  80779-4 0  9998,2 53527  53.2170 141.7154 0001429  80.8121 279.3033 15.08844805 72820,6917.866,95.437,540.719,538.742,0.0
53527.0,STARLINK-4511,PAYLOAD,2023-12-14 13:34:36,15.0884102,0.0001378,53.2172,137.8458,87.7499,272.3651,3.248e-05,2.29e-06,0.0,0 STARLINK-4511,1 53527U 22101A   23348.56569998  .00000229  00000-0  32480-4 0  9999,2 53527  53.2172 137.8458 0001378  87.7499 272.3651 15.08841020 72951,6917.877,95.437,540.696,538.789,0.0
53527.0,STARLINK-4511,PAYLOAD,2023-12-14 16:45:22,15.08841367,0.0001344,53.2174,137.2461,90.5636,269.551,3.0091e-05,1.91e-06,0.0,0 STARLINK-4511,1 53527U 22101A   23348.69817879  .00000191  00000-0  30091-4 0  9991,2 53527  53.2174 137.2461 0001344  90.5636 269.5510 15.08841367 72977,6917.876,95.437,540.671,538.811,0.0
53527.0,STARLINK-4511,PAYLOAD,2023-12-15 13:25:23,15.08839799,0.0001445,53.2177,133.3803,111.5615,248.5531,-9.5881e-05,-1.814e-05,0.0,0 STARLINK-4511,1 53527U 22101A   23349.55930486 -.00001814  00000-0 -95881-4 0  9990,2 53527  53.2177 133.3803 0001445 111.5615 248.5531 15.08839799 73102,6917.881,95.438,540.746,538.746,0.0
53527.0,STARLINK-4511,PAYLOAD,2023-12-15 16:36:10,15.08834071,0.0001317,53.2171,132.7861,93.5957,266.5186,-1.3819e-05,-5.08e-06,0.0,0 STARLINK-4511,1 53527U 22101A   23349.69178604 -.00000508  00000-0 -13819-4 0  9991,2 53527  53.2171 132.7861 0001317  93.5957 266.5186 15.08834071 73125,6917.899,95.438,540.675,538.852,0.0
